Street,Postalcode,City,Latitude,Longitude
Ulmer Str. 150,73431,Aalen,48.82852,10.11375
Carl-Zeiss-Str. 85,73431,Aalen,48.82394,10.06119
Wilhelmstr. 50,73433,Aalen,48.86223,10.10204
Hubertus-Liebrecht-Str. 40,88400,Biberach,48.11764,9.80499
Waldseer Str. 143,88400,Biberach,48.08122,9.80295
Obertürkheimer Str. 82,73733,Esslingen,48.75399,9.2747
Stauffenbergstr. 29,73730,Esslingen,48.73222,9.32387
Ignaz-Gfell-Platz 3,79868,Feldberg,47.86915,8.09602
Luzinweg 4,17258,Feldberg,53.32999,13.43494
Carl-Kistner-Str. 2,79115,Freiburg,47.99108,7.81594
Habsburger Str. 19,79104,Freiburg,48.01014,7.85475
Elsässer Str. 17,79110,Freiburg,48.01057,7.83122
Geschwister-Scholl-Platz 5,79111,Freiburg,47.99812,7.79572
Hauptstr. 5,78244,Gottmadingen,47.73642,8.7719
Stuttgarter Str. 130,73035,Göppingen,48.71062,9.62076
Großeislinger Str. 2,73037,Göppingen,48.70166,9.66426
Fritz-Frey-Str. 21,69121,Heidelberg,49.43734,8.67919
Heuauer Weg 2,69124,Heidelberg,49.37712,8.66435
Brückenstr. 47,69120,Heidelberg,49.41658,8.69189
In den Seewiesen 66,89520,Heidenheim,48.70178,10.16405
Neckarsulmer Straße 24,74076,Heilbronn,49.15245,9.2232
Urbanstr. 30,74072,Heilbronn,49.1352,9.22062
Heinrieterstr. 3,74074,Heilbronn,49.12616,9.22451
Eisenbahnstr. 8,76229,Karlsruhe,49.00512,8.50072
Neureuter Str. 8a,76185,Karlsruhe,49.01926,8.35541
Tivoliplatz 1,76137,Karlsruhe,48.99614,8.41058
Zeppelinstr. 15,76185,Karlsruhe,49.00192,8.35571
Theodor-Rehbock-Str. 4,76131,Karlsruhe,49.00916,8.4376
Kriegsstr. 236-240,76135,Karlsruhe,49.00568,8.38026
Römerstr. 90,77694,Kehl,48.51358,7.82027
Boschstr. 3,77694,Kehl,48.55064,7.83846
Max-Stromeyer-Str. 15,78467,Konstanz,47.67481,9.16459
Kreuzlingerstraße 24,78467,Konstanz,47.65717,9.17148
Leibnizstr. 3,70806,Kornwestheim,48.8679,9.19882
John-F. Kennedy-Allee 2,70806,Kornwestheim,48.87736,9.22309
Offenburger Str. 24,77933,Lahr,48.34591,7.84298
Geroldsecker Vorstadt 2,77933,Lahr,48.34108,7.88151
Heilbronner Str. 2,70771,Leinfelden-Echterdingen,48.69567,9.16792
Maybachstr. 10,70771,Leinfelden-Echterdingen,48.70083,9.14424
Höfer Äcker 3,70771,Leinfelden-Echterdingen,48.67142,9.17609
Reuteallee 23,71634,Ludwigsburg,48.90597,9.17882
Hindenburgstr. 60,71638,Ludwigsburg,48.891,9.20498
Koblenzer Str. 23,68309,Mannheim,49.50813,8.52805
Ulmenweg 47-49,68167,Mannheim,49.50542,8.48942
"Dammstr. 1,3",68169,Mannheim,49.49626,8.47042
Rheinauer Ring 95,68219,Mannheim,49.43089,8.53299
Schwetzinger Str. 148-152,68165,Mannheim,49.47545,8.48001
Lilienthalstr. 301-309,68307,Mannheim,49.54709,8.47948
Speckweg 55-59,68305,Mannheim,49.52264,8.48944
Kochendorfer Str. 44,74172,Neckarsulm,49.20354,9.23102
Hohenloher Straße 2/1,74172,Neckarsulm,49.1841,9.22658
Rastatter Str. 5,75179,Pforzheim,48.89944,8.66707
Sägewerkstr. 2,75181,Pforzheim,48.90948,8.75077
Kieselbronner Str. 24,75177,Pforzheim,48.90829,8.7173
Am Hauptgüterbahnhof 2-4,75177,Pforzheim,48.896,8.71116
Arlinger Straße 1,75179,Pforzheim,48.88724,8.66266
Wannweilerstr. 23,72770,Reutlingen,48.50057,9.17514
Emil-Adolff-Str. 15,72760,Reutlingen,48.49768,9.19979
Storlachstr. 31,72760,Reutlingen,48.50598,9.20913
An der Kreuzeiche 23,72762,Reutlingen,48.47869,9.19905
Steinbeißweg 2,74523,Schwäbisch,49.10541,9.70958
Leonberger Str. 25,71063,Sindelfingen,48.7159,9.00241
Mahdentalstraße 49,71065,Sindelfingen,48.7077,9.01865
Steinsbergstr. 5,74889,Sinsheim,49.2474,8.87646
Froschwiesenweg 1,74889,Sinsheim,49.2415,8.90518
Bottroper Str. 8a,70376,Stuttgart,48.81831,9.21312
Hofener Str. 126,70372,Stuttgart,48.81522,9.22692
Wildunger Str. 4,70372,Stuttgart,48.80089,9.22194
"Griegstr. 2, Anfahrt: Eltinger Straße 8",70195,Stuttgart,48.77859,9.12502
Heigelinstr. 4,70567,Stuttgart,48.71377,9.16484
Gerlinger Str. 96,70499,Stuttgart,48.81384,9.08692
Heiligenwiesen 35,70329,Stuttgart,48.7627,9.25292
Vaihinger Str. 115,70567,Stuttgart,48.72792,9.13819
Hauptstätter Str. 111,70178,Stuttgart,48.76746,9.17177
Pforzheimer Str. 338-342,70499,Stuttgart,48.81449,9.1172
Adestr. 30,70435,Stuttgart,48.83488,9.15741
Haslacher Weg 24,89075,Ulm,48.42998,10.01855
Wielandstr. 54,89073,Ulm,48.40612,10.00552
Wörthstr. 59,89077,Ulm,48.39243,9.97429
Schützenstr. 42,78056,Villingen-Schwenningen,48.06389,8.5425
Villinger Str. 149,78054,Villingen-Schwenningen,48.0628,8.51274
Altstadtstr. 11,78048,Villingen-Schwenningen,48.05488,8.46864
Beim Enggäßle 1,78050,Villingen-Schwenningen,48.05845,8.43625
Infanteriestraße 3,92224,Amberg,49.44511,11.84305
Barbarastr. 20,92224,Amberg,49.43414,11.87975
Hirschauer Str. 2,92224,Amberg,49.46663,11.85208
Donaustraße,86165,Augsburg,48.37665,10.93098
Pearl.-S.-Buck-Straße 10,86157,Augsburg,48.37153,10.86692
Reichenberger Straße 45,86161,Augsburg,48.36198,10.92014
Eichleitnerstr. 10,86199,Augsburg,48.3465,10.88601
Auerstr. 57 a,86156,Augsburg,48.38792,10.86891
Neuburger Str. 227,86169,Augsburg,48.39729,10.91513
Laubanger 14a,96052,Bamberg,49.91074,10.87413
Villachstr. 2,96052,Bamberg,49.90859,10.90136
Würzburger Str. 57,96049,Bamberg,49.87535,10.88458
Gaustadter Hauptstr. 109,96049,Bamberg,49.90269,10.86514
Riedingerstraße 21,95448,Bayreuth,49.95955,11.60231
Adolf-Wächter-Str. 1,95447,Bayreuth,49.93495,11.54984
Nürnberger Str. 3 a,95448,Bayreuth,49.93574,11.59183
Meranierring 49,95445,Bayreuth,49.95106,11.54699
Kanonenweg 15a,96450,Coburg,50.2675,10.96186
Ketschendorfer Str. 122,96450,Coburg,50.24237,10.97205
Keplerstr. 4,85221,Dachau,48.26127,11.47262
Neumühle 4,91056,Erlangen,49.58765,10.97655
Mönaustr. 75,91056,Erlangen,49.59506,10.95127
Dresdener Str. 21,91058,Erlangen,49.57872,10.98695
Karwendelring 3,85354,Freising,48.41192,11.74074
Clemensänger Ring 26,85356,Freising,48.37932,11.75211
Schwabacher Straße 5,90762,Fürth,49.47538,10.98985
Erbacher Str. 46,64658,Fürth,49.65416,8.78589
Siemensstr. 41,90766,Fürth,49.47916,10.96413
Erlanger Str. 192,90765,Fürth,49.49339,10.98918
Geschwister-Scholl-Str. 2,89312,Günzburg,48.44565,10.28318
Violastr. 11,89312,Günzburg,48.45109,10.26096
Permoserstraße 81,85057,Ingolstadt,48.77012,11.39515
Goethestraße 61,85055,Ingolstadt,48.77245,11.44449
Elisabethstr. 15,85051,Ingolstadt,48.74032,11.43683
Eriagstr. 3,85053,Ingolstadt,48.74758,11.46777
Lindauer Str. 106,87439,Kempten,47.71801,10.29709
Ludwigstr. 80,87437,Kempten,47.70035,10.32286
Goldhoferstr. 3,87700,Memmingen,48.0002,10.17226
Schlachthofstr. 37,87700,Memmingen,47.99291,10.18445
Georg Reismüller Str. 28,80999,München,48.19416,11.46449
Bergsonstr. 147,81245,München,48.16121,11.42527
Brunhamstr. 18,81249,München,48.14092,11.42474
Weihenstephaner Str. 32,81673,München,48.13154,11.62398
Truderinger Str. 190,81825,München,48.12794,11.65508
Freischützstr. 46,81927,München,48.16512,11.6449
Rainfarnstraße 48-52,80933,München,48.2098,11.55305
Ingolstädter Str. 170,80939,München,48.20318,11.58596
Dreimühlenstr. 42,81371,München,48.1195,11.55807
Luisenstr. 51-53,80333,München,48.14987,11.56625
Frankfurter Ring 5,80807,München,48.18753,11.56831
Knorrstr. 57,80807,München,48.18379,11.57275
Dachauer Str. 380,80993,München,48.19181,11.50243
Schleißheimer Straße 468,80797,München,48.20759,11.56374
Pelkovenstraße 152,80992,München,48.18203,11.53428
Mahatma-Gandhi-Platz 5,81248,München,48.14166,11.4105
Leopoldstraße 21,80802,München,48.15749,11.58379
Nymphenburger Str. 81,80636,München,48.15018,11.54455
Dachauer Str. 92,80335,München,48.15139,11.55749
Hackerbrücke 4,80335,München,48.14261,11.55255
Elisenstraße 3,80335,München,48.14086,11.56182
Theresienhöhe 5,80339,München,48.13595,11.54686
Schwanthaler Str. 31,80336,München,48.1373,11.56004
Fürstenrieder Str. 220,81377,München,48.11948,11.50228
Kapuziner Straße 18+20,80337,München,48.12693,11.55712
Kistlerhofstraße 152,81379,München,48.09458,11.5126
Thomas-Dehler-Straße 15,81737,München,48.09892,11.64604
Heimburgstr. 9 + 15,81243,München,48.14749,11.44399
Menzinger Str. 85,80992,München,48.16535,11.48966
Nawiasky Str. 3,81735,München,48.10678,11.63536
Balanstr. 188,81549,München,48.1057,11.60451
Leopoldstr. 144,80804,München,48.16892,11.58645
Schleißheimer Str. 85-87,80797,München,48.15799,11.5624
Westendstr. 100,80339,München,48.13831,11.53657
Albert-Roßhaupter-Str. 35-39,81369,München,48.11674,11.53231
Hofmannstr. 16,81379,München,48.10087,11.52929
Tübinger Str. 9,80686,München,48.13291,11.525
Corinthstr. 3,81825,München,48.11264,11.64991
Wegenerstr. 5,89231,Neu-Ulm,48.37707,10.00654
Im Starkfeld 59,89231,Neu-Ulm,48.3956,10.02059
Blomenhofstr. 1a,92318,Neumarkt,49.29893,11.46
Nürnberger Str. 46,92318,Neumarkt,49.28911,11.44422
Regensburger Str. 105,92318,Neumarkt,49.26802,11.4718
Peyerstr. 23,90429,Nürnberg,49.45803,11.04276
Kallmünzer Str. 16,90478,Nürnberg,49.43389,11.12613
Allersbergerstr. 130,90461,Nürnberg,49.43563,11.09144
Rohrmannstr. 11,90429,Nürnberg,49.44762,11.05775
Schweinfurter Str. 26,90427,Nürnberg,49.52354,11.01462
Strawinskystr. 42,90455,Nürnberg,49.34564,11.06009
Löwenberger Str. 153,90475,Nürnberg,49.41263,11.17331
Ostendstr. 58,90482,Nürnberg,49.4525,11.1112
Brettergartenstr. 84,90427,Nürnberg,49.47055,11.02564
Bessemer Str. 17,90411,Nürnberg,49.47508,11.10423
Sankt-Gallen-Ring 1,90431,Nürnberg,49.44222,11.02684
Gebersdorfer Str. 290,90449,Nürnberg,49.4357,10.99665
Bahnhofsplatz 9,90443,Nürnberg,49.44654,11.08161
Ernst-Sachs-Str. 4,90441,Nürnberg,49.42806,11.05637
Am Röthenbacher Landgraben 2,90451,Nürnberg,49.42001,11.03685
Julius-Loßmann-Str. 11,90469,Nürnberg,49.4164,11.08073
Thüringerstr. 2,90459,Nürnberg,49.43365,11.07444
Cuxhavener Str. 2,90425,Nürnberg,49.47701,11.06342
Friedrich-Viehbacher-Allee 9,93055,Regensburg,48.9885,12.1427
Altmühlstr. 4,93059,Regensburg,49.02953,12.11579
Prüfeninger Schloßstr. 4,93051,Regensburg,49.01124,12.05789
Merowinger Str. 1,93053,Regensburg,48.99358,12.10488
Metzgerweg 11,93055,Regensburg,49.02512,12.15059
Pichlmayrstraße 13,83024,Rosenheim,47.85582,12.10882
Chiemseestraße 37a,83022,Rosenheim,47.85029,12.13674
Niederwerrner Str. 93,97421,Schweinfurt,50.04788,10.2105
Professor-Zintl-Str. 11,92637,Weiden,49.69302,12.13645
Zur Centralwerkstätte 22,92637,Weiden,49.68388,12.16256
Leimberger Str. 55,92637,Weiden,49.66469,12.14758
Schweinfurter Str. 8,97080,Würzburg,49.7988,9.94589
Stuttgarter Str. 24,97084,Würzburg,49.75693,9.94286
Moskauer Ring 5,97084,Würzburg,49.7379,9.95853
Werner-von-Siemens-Str. 62,97076,Würzburg,49.80661,9.97913
Leistenstr. 25,97082,Würzburg,49.78765,9.92002
Versbacher Str. 75,97078,Würzburg,49.80983,9.96143
Mainaustr. 57,97082,Würzburg,49.79642,9.89646
Luisenstr. 52,10117,Berlin-Mitte,52.52431,13.3795
Heinrich-Heine-Str. 30,10179,Berlin-Mitte,52.50614,13.41252
Brunnenstr. 87,13355,Berlin-Mitte,52.54428,13.3916
Badstr. 60,13357,Berlin-Mitte,52.55108,13.38347
Müllerstr. 48/48a,13349,Berlin-Mitte,52.55208,13.34952
Donaustr. 96,12043,Berlin-Neukölln,52.4808,13.43879
Gutschmidtstr. 101,12359,Berlin-Neukölln,52.43913,13.43798
Tempelhofer Weg 14,12347,Berlin-Neukölln,52.45804,13.42452
Späthstr. 162,12359,Berlin-Neukölln,52.45287,13.45325
Warmensteinacher Str. 57,12349,Berlin-Neukölln,52.41448,13.42561
Buckower Damm 194,12349,Berlin-Neukölln,52.42621,13.4351
Lipschitzallee 50,12353,Berlin-Neukölln,52.42623,13.46532
Glasower Str. 42,12051,Berlin-Neukölln,52.46412,13.43525
Hermannstr. 55,12049,Berlin-Neukölln,52.47692,13.4262
Lahnstr. 61,12055,Berlin-Neukölln,52.46816,13.4469
Flughafenstr. 1,12053,Berlin-Neukölln,52.48175,13.43354
Maybachufer 32-33,12047,Berlin-Neukölln,52.49218,13.43191
Sonnenallee 192,12059,Berlin-Neukölln,52.47555,13.45209
Neuköllner Str. 236-238,12357,Berlin-Neukölln,52.42699,13.48132
Seegefelder Weg 391,13591,Berlin-Spandau,52.54637,13.14335
Nonnendammallee 175,13599,Berlin-Spandau,52.53961,13.23315
Kladower Damm 363-365,14089,Berlin-Spandau,52.45539,13.14589
Heerstr. 640,13591,Berlin-Spandau,52.52748,13.12991
Seeburger Str. 18,13581,Berlin-Spandau,52.52792,13.18866
Falkenseer Damm 19,13585,Berlin-Spandau,52.54323,13.19761
Neuendorfer Str. 30,13585,Berlin-Spandau,52.54784,13.20984
Charlottenburger Chaussee 18,13597,Berlin-Spandau,52.52642,13.24057
Mühlenstr. 2,14167,Berlin-Steglitz-Zehlendorf,52.42947,13.25993
Kaiser-Wilhelm-Str. 127,12247,Berlin-Steglitz-Zehlendorf,52.44094,13.35261
Hüttenweg 50,14195,Berlin-Steglitz-Zehlendorf,52.45738,13.26371
Kaiser-Wilhelm-Str. 6,12247,Berlin-Steglitz-Zehlendorf,52.43011,13.33357
Wismarer Str. 35,12207,Berlin-Steglitz-Zehlendorf,52.42108,13.30005
Curtiusstr. 36,12205,Berlin-Steglitz-Zehlendorf,52.44072,13.28997
Hindenburgdamm 94,12203,Berlin-Steglitz-Zehlendorf,52.44175,13.31548
Birkbuschstr. 54,12167,Berlin-Steglitz-Zehlendorf,52.44465,13.33111
Rothenburgstr. 38a,12163,Berlin-Steglitz-Zehlendorf,52.45872,13.3188
Schloßstr. 1,12163,Berlin-Steglitz-Zehlendorf,52.46444,13.3276
Steglitzer Damm 95,12169,Berlin-Steglitz-Zehlendorf,52.44919,13.35409
Teltower Damm 295,14167,Berlin-Steglitz-Zehlendorf,52.40652,13.26836
Clayallee 278,14169,Berlin-Steglitz-Zehlendorf,52.44186,13.26542
Indira-Ghandi-Str. 101,13053,Berlin-Lichtenberg,52.54653,13.46882
Große-Leege-Str. 95,13055,Berlin-Lichtenberg,52.54317,13.49723
Gehrenseestr. 11,13053,Berlin-Lichtenberg,52.55126,13.51409
Ontarioseestr. 17,10319,Berlin-Lichtenberg,52.49546,13.52325
Möllendorffstr. 75a,10367,Berlin-Lichtenberg,52.52238,13.47946
Markstr. 40-42,13409,Berlin-Reinickendorf,52.56173,13.36486
Quickborner Straße 66-70,13439,Berlin-Reinickendorf,52.6034,13.3675
Holzhauser Str. 168,13509,Berlin-Reinickendorf,52.58668,13.31641
Ruppiner Chaussee 401,13503,Berlin-Reinickendorf,52.62457,13.23038
Berliner Str. 141,13467,Berlin-Reinickendorf,52.6133,13.31426
Ollenhauer-Str. 7,13403,Berlin-Reinickendorf,52.56497,13.329
Roedernallee 45-50,13407,Berlin-Reinickendorf,52.58624,13.34149
Karolinenstr. 1-2,13507,Berlin-Reinickendorf,52.59413,13.28186
Rastatter Straße 3,12623,Berlin-Marzahn-Hellersdorf,52.49023,13.6064
Märkische Allee 276,12679,Berlin-Marzahn-Hellersdorf,52.55647,13.55441
Cecilienstr. 161,12683,Berlin-Marzahn-Hellersdorf,52.52881,13.57067
Gothaer Str. 49,12629,Berlin-Marzahn-Hellersdorf,52.53724,13.5902
Zossener Str. 121,12629,Berlin-Marzahn-Hellersdorf,52.5449,13.59305
Mark-Twain-Str. 2,12627,Berlin-Marzahn-Hellersdorf,52.53354,13.61022
Chemnitzer Str. 174,12621,Berlin-Marzahn-Hellersdorf,52.48965,13.57535
Alt-Kaulsdorf 56,12621,Berlin-Marzahn-Hellersdorf,52.50491,13.58913
Feldberger Ring 1,12619,Berlin-Marzahn-Hellersdorf,52.52797,13.58914
Märkische Allee 140A,12681,Berlin-Marzahn-Hellersdorf,52.53143,13.53701
Allee der Kosmonauten 141 A,12683,Berlin-Marzahn-Hellersdorf,52.53236,13.54964
Prötzeler Ring 8,12685,Berlin-Marzahn-Hellersdorf,52.54591,13.57575
Adlergestell 291,12489,Berlin-Treptow-Köpenick,52.43102,13.548
Semmelweisstr. 106,12524,Berlin-Treptow-Köpenick,52.42471,13.52704
Bruno-Taut-Str. 4,12524,Berlin-Treptow-Köpenick,52.41303,13.57119
Kiefholzstr. 189,12437,Berlin-Treptow-Köpenick,52.46469,13.48805
Fürstenwalder Damm 425,12587,Berlin-Treptow-Köpenick,52.45555,13.61838
Grünauer Str. 118,12557,Berlin-Treptow-Köpenick,52.43664,13.57152
Wendenschloßstr. 9,12559,Berlin-Treptow-Köpenick,52.44725,13.59253
Wilhelminenhofstr. 83-85,12459,Berlin-Treptow-Köpenick,52.46165,13.517
Kiefholzstr. 386,12435,Berlin-Treptow-Köpenick,52.48412,13.46108
Fürstenbrunner Weg 14-18,14059,Berlin-Charlottenburg-Wilmersdorf,52.51981,13.28035
Lise-Meitner-Str. 6,10589,Berlin-Charlottenburg-Wilmersdorf,52.52761,13.30677
Gervinusstr. 30,10629,Berlin-Charlottenburg-Wilmersdorf,52.50265,13.29787
Sophie-Charlotten-Str. 31,14059,Berlin-Charlottenburg-Wilmersdorf,52.51541,13.28752
Wilmersdorfer Str. 126,10627,Berlin-Charlottenburg-Wilmersdorf,52.50973,13.30583
Seesener Str. 10-13,10709,Berlin-Charlottenburg-Wilmersdorf,52.49159,13.29822
Berliner Str. 26/27,10715,Berlin-Charlottenburg-Wilmersdorf,52.48665,13.32514
Hauptstraße 65,12159,Berlin-Tempelhof-Schöneberg,52.47697,13.3418
Hauptstr. 122,10827,Berlin-Tempelhof-Schöneberg,52.48323,13.35093
Kleiststr. 3-6,10787,Berlin-Tempelhof-Schöneberg,52.50057,13.35066
Potsdamer Str. 203,10783,Berlin-Tempelhof-Schöneberg,52.49173,13.36097
Kreuzbergstr. 40,10965,Berlin-Tempelhof-Schöneberg,52.48932,13.37486
Nuthestr. 5,12307,Berlin-Tempelhof-Schöneberg,52.39769,13.392
Lichtenrader Damm 219,12305,Berlin-Tempelhof-Schöneberg,52.39287,13.40692
Großbeerenstr. 2,12107,Berlin-Tempelhof-Schöneberg,52.43874,13.37971
Marienfelder Allee 202,12279,Berlin-Tempelhof-Schöneberg,52.40859,13.35879
Malteserstr. 162,12277,Berlin-Tempelhof-Schöneberg,52.41717,13.361
Vorarlberger Damm 24/26,12157,Berlin-Tempelhof-Schöneberg,52.47016,13.34994
Manteuffelstr. 24-25,12103,Berlin-Tempelhof-Schöneberg,52.4586,13.37585
Tempelhofer Damm 215-219,12099,Berlin-Tempelhof-Schöneberg,52.45611,13.38454
Tempelhofer Damm 130,12099,Berlin-Tempelhof-Schöneberg,52.46796,13.38521
Oberlandstr. 17,12099,Berlin-Tempelhof-Schöneberg,52.46477,13.41574
Prenzlauer Allee 44,10405,Berlin-Pankow,52.53632,13.42287
Prenzlauer Promenade 65-67,13089,Berlin-Pankow,52.5676,13.42793
Pasewalker Str. 77,13127,Berlin-Pankow,52.59379,13.43235
Blankenburger Str. 17a,13089,Berlin-Pankow,52.5717,13.44355
Blankenburger Chaussee 10,13125,Berlin-Pankow,52.60762,13.4789
Wisbyer Str. 16,10439,Berlin-Pankow,52.55281,13.42145
Berliner Str. 27-28,13189,Berlin-Pankow,52.56352,13.4125
Bornholmer Str. 65,10439,Berlin-Pankow,52.55436,13.40062
Prenzlauer Allee 93,10409,Berlin-Pankow,52.5465,13.42843
Dietzgenstr. 102,13158,Berlin-Pankow,52.59166,13.40253
Roelckestr. 172,13086,Berlin-Pankow,52.55017,13.44154
Berliner Allee 300,13088,Berlin-Pankow,52.56457,13.47031
Dudenstr. 90,10965,Berlin-Friedrichshain-Kreuzberg,52.4852,13.37286
Eldenaer Str. 34A,10247,Berlin-Friedrichshain-Kreuzberg,52.52039,13.46798
Warschauer Platz 14,10245,Berlin-Friedrichshain-Kreuzberg,52.50472,13.44954
Friedenstr. 94 a,10249,Berlin-Friedrichshain-Kreuzberg,52.52206,13.43544
Stresemannstr. 72-78,10963,Berlin-Friedrichshain-Kreuzberg,52.50348,13.38369
Charlottenstr. 2,10969,Berlin-Friedrichshain-Kreuzberg,52.50516,13.39282
Kottbusser Str. 16a,10999,Berlin-Friedrichshain-Kreuzberg,52.49682,13.41969
Oranienplatz 4,10999,Berlin-Friedrichshain-Kreuzberg,52.50207,13.41446
Zeughofstr. 23 A,10997,Berlin-Friedrichshain-Kreuzberg,52.50116,13.43544
Friedrich-Franz-Str. 4,14770,Brandenburg,52.41374,12.52375
Potsdamer Str. 23,14776,Brandenburg,52.40563,12.57114
Sielower Landstraße 21,03044,Cottbus,51.7726,14.3269
Uhlandstr. 12,03050,Cottbus,51.72589,14.33731
Karl-Liebknecht-Str. 47a,03046,Cottbus,51.75585,14.31146
Weinbergweg 36,15232,Frankfurt/Oder,52.33448,14.52803
Rathenaustr. 4,15234,Frankfurt/Oder,52.34879,14.51456
Großbeerenstr. 265,14480,Potsdam,52.38036,13.13074
Zeppelinstr. 56,14471,Potsdam,52.3902,13.03066
Potsdamer Str. 39-42,14469,Potsdam,52.41796,13.01746
Horstweg 98,14478,Potsdam,52.37864,13.08484
Berliner Str. 121,14467,Potsdam,52.40768,13.07511
Zum Kirchsteigfeld 12,14480,Potsdam,52.36645,13.12983
Hauptstr. 63,16348,Wandlitz,52.68611,13.44134
Bernauer Chaussee 70,16348,Wandlitz,52.74634,13.46453
Arberger Heerstr. 35,28307,Bremen,53.03914,8.91103
Arsterdamm 180,28279,Bremen,53.0337,8.84501
Hammersbecker Str. 57-59,28755,Bremen,53.18396,8.62434
Lüssumer Str. 117,28779,Bremen,53.19261,8.57454
AG-Weser-Straße 3,28237,Bremen,53.11207,8.75052
Kornstr. 305,28201,Bremen,53.0553,8.81382
Stader Landstr. 2-6,28719,Bremen,53.16744,8.70358
Farger Str. 113,28777,Bremen,53.20505,8.52187
In der Vahr 51,28329,Bremen,53.08162,8.87596
Gröpelinger Heerstr. 43-45,28237,Bremen,53.11086,8.76934
Hastedter Heerstr. 19,28207,Bremen,53.06937,8.85796
Leher Heerstr. 126,28357,Bremen,53.10028,8.88434
Huchtinger Heerstr. 57,28259,Bremen,53.05849,8.73316
Dovemoor Str. 10,28259,Bremen,53.03839,8.7265
Kieler Str. 2,28219,Bremen,53.0984,8.79498
Osterholzer Heerstr. 159,28307,Bremen,53.05795,8.94755
Schevemoorer Landstr. 78-80,28325,Bremen,53.07436,8.94952
Woltmershauser Str. 436-440,28197,Bremen,53.08569,8.76423
Schiffdorfer Chaussee 225,27574,Bremerhaven,53.53082,8.63337
Twischlehe 16,27580,Bremerhaven,53.57977,8.59728
Elbestr. 124,27570,Bremerhaven,53.54526,8.59361
Georg-Seebeck-Str. 44,27570,Bremerhaven,53.52682,8.59391
Wilhelm-Leuschner-Str. 20,27578,Bremerhaven,53.59171,8.61785
Carsten-Börger-Str. 10,27572,Bremerhaven,53.49239,8.59952
Rahel-Varnhagen-Weg 26,21035,Hamburg,53.48628,10.18228
Paul-Nevermann-Platz 15-16,22765,Hamburg,53.55189,9.93552
Bahrenfelder Chaussee 41,22761,Hamburg,53.56443,9.91445
Osdorfer Landstr. 8-10,22607,Hamburg,53.57042,9.87644
Bramfelder Str. 58,22305,Hamburg,53.5856,10.05027
Fuhlsbüttler Str. 184-186,22307,Hamburg,53.59359,10.0447
Winterhuder Weg 76,22085,Hamburg,53.57426,10.02258
Dehnhaide 111-117,22081,Hamburg,53.579,10.05116
Asbrookdamm 37,22115,Hamburg,53.52299,10.14968
Reclamstr. 19,22111,Hamburg,53.53948,10.11168
Haldesdorfer Str. 78-80,22179,Hamburg,53.59869,10.07662
Altonaer Str. 10,20357,Hamburg,53.5633,9.96066
Bremer Str. 181,21073,Hamburg,53.44878,9.96393
Kümmellstr. 4-8,20249,Hamburg,53.59035,9.98515
August-Krogmann-Str. 192,22159,Hamburg,53.62244,10.1127
Alsterkrugchaussee 309,22297,Hamburg,53.61499,10.00226
Rönneburger Straße 23,21079,Hamburg,53.44226,9.99319
Wilhelm-Strauß-Weg 2b-10,21109,Hamburg,53.4983,10.00954
Horner Brückenweg 12-14,22113,Hamburg,53.54522,10.08558
Manshardtstraße 74,22119,Hamburg,53.55757,10.10094
Holstenstraße 5-9,22767,Hamburg,53.55093,9.95612
Hübbesweg 4,20537,Hamburg,53.55404,10.0604
Carl-Petersen-Str. 55,20535,Hamburg,53.55849,10.04538
Wilstorfer Str.48,21073,Hamburg,53.45686,9.98487
Grindelberg 53-55,20144,Hamburg,53.57576,9.97744
Cuxhavener Str. 126-128,21149,Hamburg,53.47193,9.89255
Buxtehuder Str. 28,21073,Hamburg,53.46631,9.97363
Rennbahnstr. 115,22111,Hamburg,53.56144,10.07904
Osdorfer Landstr. 403,22589,Hamburg,53.57573,9.82451
Barsbütteler Str. 33,22043,Hamburg,53.57058,10.14165
Schöneberger Str. 29,22045,Hamburg,53.58457,10.13979
Krohnstieg 55,22415,Hamburg,53.64797,10.01004
Lohbrügger Landstr. 126,21031,Hamburg,53.50466,10.19066
Eidelstedter Weg 24,20255,Hamburg,53.58186,9.95393
Kressenweg 34,22549,Hamburg,53.58428,9.87234
Nincoper Str. 154,21129,Hamburg,53.51524,9.79428
Cuxhavener Str. 407,21149,Hamburg,53.47207,9.83881
Kollaustr. 129-135,22453,Hamburg,53.6099,9.95776
Sperberhorst 5-9,22459,Hamburg,53.63395,9.95528
Bornheide 9,22549,Hamburg,53.58288,9.85603
Behringstr. 154,22763,Hamburg,53.55709,9.903
Sieker Landstr. 45,22143,Hamburg,53.60753,10.17852
Hellmesbergerweg 35,22145,Hamburg,53.63136,10.18221
Ausschläger Allee 174,20539,Hamburg,53.53122,10.05504
Frohmestr. 99-105,22459,Hamburg,53.62942,9.92958
Pinneberger Str. 16,22457,Hamburg,53.63311,9.90754
Steindamm 94,20099,Hamburg,53.55552,10.01722
Sülldorfer Landstr. 188,22589,Hamburg,53.58057,9.79774
Tonndorfer Hauptstr. 173-177,22045,Hamburg,53.59284,10.13623
Claus-Ferck-Str. 35-37,22359,Hamburg,53.65183,10.16556
Brauhausstr. 23,22041,Hamburg,53.5728,10.05901
Am Stadtrand 21,22047,Hamburg,53.58569,10.09953
Reinstorfweg 16,21107,Hamburg,53.50076,9.99219
Am Veringhof 6-9,21107,Hamburg,53.51343,9.9854
Borgweg 2 a,22303,Hamburg,53.5893,10.01597
Darmstädter Str. 160,64625,Bensheim,49.6989,8.62174
Gräfenhäuser Str. 44,64293,Darmstadt,49.88605,8.63472
Eschollbrücker Str. 39,64295,Darmstadt,49.85744,8.63227
Jägertorstr. 250,64289,Darmstadt,49.89553,8.67733
Industriestr. 8,63303,Dreieich,50.00376,8.70342
Dieselstr. 15+17,63303,Dreieich,50.02994,8.70107
Röntgenstr. 16,60388,Frankfurt,50.14338,8.74678
Schloßstr. 41-49,60486,Frankfurt,50.12147,8.64021
Hanauer Landstr. 519,60386,Frankfurt,50.13043,8.76121
Mainzer Landstr. 377-385,60326,Frankfurt,50.10173,8.63191
Platenstr. 99,60431,Frankfurt,50.13986,8.65471
Heddernheimer Landstr. 130,60439,Frankfurt,50.16263,8.63786
Berner Str. 44-48,60437,Frankfurt,50.1943,8.65717
Friedberger Landstr. 298,60389,Frankfurt,50.13344,8.69568
Hanauer Landstr. 219,60314,Frankfurt,50.11487,8.7217
August-Schanz-Str. 60-64,60433,Frankfurt,50.16256,8.6853
Zur Kalbacher Höhe 6,60438,Frankfurt,50.17566,8.64215
Lorscher Str. 41,60489,Frankfurt,50.12879,8.60604
Offenbacher Landstr. 53,60599,Frankfurt,50.10227,8.69725
Oppenheimer Landstr. 77 + 79,60596,Frankfurt,50.09603,8.68064
Arolser Str. 8,60389,Frankfurt,50.14039,8.718
Siegener Str. 69,65936,Frankfurt,50.12567,8.56505
Sossenheimer Weg 67,65929,Frankfurt,50.11431,8.54453
Niesiger Str. 163,36039,Fulda,50.57428,9.67507
Petersberger Str. 190,36037,Fulda,50.55273,9.70781
Frankfurter Str. 10,36043,Fulda,50.54297,9.6752
Brown Boveri Str. 25,63457,Hanau,50.09646,8.95143
Kinzigbogen 8,63452,Hanau,50.14568,8.93307
Kinzigheimer Weg 130,63450,Hanau,50.11678,8.92671
Geleitstr. 51,63456,Hanau,50.10421,8.91947
Gewerbepark Untere Au 11,35745,Herborn,50.66911,8.30829
Ochshäuser Str. 6,34123,Kassel,51.30158,9.53091
Ihringshäuser Str. 151,34125,Kassel,51.34001,9.51632
Ostring 62 A,34125,Kassel,51.32458,9.51558
Obere Königsstraße 39,34117,Kassel,51.31428,9.49539
Kohlenstr. 75,34121,Kassel,51.3089,9.45818
Brückenhofstr. 77,34132,Kassel,51.28326,9.44188
Frankfurter Str. 215-217,34134,Kassel,51.29126,9.47416
Wolfhager Str. 201,34127,Kassel,51.32449,9.46819
Hafenstr. 5,34125,Kassel,51.31408,9.50997
Industriestr. 32,65549,Limburg,50.37579,8.05288
Elzer Str. 28,65556,Limburg,50.40204,8.04621
Dörnigheimer Weg 5a,63477,Maintal,50.14862,8.81043
Berliner Str. 3,63477,Maintal,50.14109,8.8376
Marburger Str. 90,35043,Marburg,50.78624,8.76712
Universitätsstr. 15,35037,Marburg,50.80711,8.7689
Tom-Mutters-Straße 7,35041,Marburg,50.84279,8.76688
Hegelstr. 6,63165,Mühlheim,50.12118,8.86612
Offenbacher Str. 115,63165,Mühlheim,50.11677,8.81203
Alfred-Delp-Str. 46,63110,Rodgau,50.04306,8.88249
Hainburg Str. 47,63110,Rodgau,49.99916,8.88013
Gottfried-Keller-Str. 13,65232,Taunusstein,50.14119,8.15658
Auf dem kleinen Feld 40,65232,Taunusstein,50.17019,8.22036
Friedrich-Bergius-Str. 1,65203,Wiesbaden,50.04589,8.22078
Rostocker Straße 5,65191,Wiesbaden,50.08887,8.29012
Stegerwaldstr. 24,65199,Wiesbaden,50.07015,8.19762
Daimlerring 2,65205,Wiesbaden,50.05978,8.33534
Kirchgasse 17,65185,Wiesbaden,50.07917,8.2384
Angelika-Thiels-Straße 1,65187,Wiesbaden,50.05632,8.25635
Dotzheimer Straße 152,65197,Wiesbaden,50.0767,8.21522
Hasenwinkel 36,17491,Greifswald,54.08075,13.42981
Anklamer Str. 30,17489,Greifswald,54.09067,13.39474
Demminer Str. 49,17034,Neubrandenburg,53.56904,13.27127
Neubrandenburger Str. 10-11,18055,Rostock,54.07922,12.15971
Maxim-Gorki-Str. 66/67,18106,Rostock,54.11711,12.05368
Schiffbauerring 1,18109,Rostock,54.1462,12.06911
Güstrower Str. 8,18109,Rostock,54.15222,12.06578
Warnowallee 20 a,18107,Rostock,54.1384,12.04499
Tschaikowskistr. 39,18069,Rostock,54.08759,12.08757
Doberaner Str. 144,18057,Rostock,54.08937,12.12061
Hinrichsdorfer Straße 13a,18146,Rostock,54.10832,12.15772
Stephan-Jantzen-Ring 50 a,18106,Rostock,54.13009,12.07124
Gaffelschoner Weg 15,18055,Rostock,54.09177,12.15114
An der Crivitzer Chaussee 16,19061,Schwerin,53.60341,11.44188
Grüne Str. 23,19055,Schwerin,53.62962,11.41871
Greifswalder Str. 1,19057,Schwerin,53.64664,11.35344
Lübecker Str. 225,19059,Schwerin,53.64008,11.39258
Schweriner Str. 3b,19061,Schwerin,53.58534,11.39904
Heinrich-von-Stephan-Str. 6,18435,Stralsund,54.32769,13.0646
Feldstr. 1,18437,Stralsund,54.30224,13.07448
Lübsche Str. 203,23966,Wismar,53.89636,11.42751
Am kleinen Stadtfeld 8,23970,Wismar,53.87441,11.44738
Am Wiesengrund 3,23970,Wismar,53.91138,11.4833
Bremer Str. 9,28832,Achim,53.01251,9.02806
Verdener Str. 74,28832,Achim,52.99957,9.06854
Soltauer Str. 93,21244,Buchholz,53.31436,9.87895
Zimmererstr. 1,21244,Buchholz,53.34451,9.85753
Harburger Straße 60 - 62,21614,Buxtehude,53.47437,9.71386
Cuxhavener Str. 183,21614,Buxtehude,53.48361,9.62313
Grüner Weg 2-5,27472,Cuxhaven,53.86985,8.69991
Feldweg 21,27472,Cuxhaven,53.8718,8.68661
Grodener Chaussee 80,27472,Cuxhaven,53.8516,8.71448
Brockeswalder Chaussee 8,27474,Cuxhaven,53.85982,8.68096
Ulmenstr. 3-5,26725,Emden,53.34545,7.22701
Teutonenstr. 1,26723,Emden,53.36773,7.18845
Fritz-Reuter-Str. 6,26721,Emden,53.38987,7.21014
Folkmar-Allena-Str. 2,26725,Emden,53.37444,7.23533
Klöcknerstr. 27,49124,Georgsmarienhütte,52.20415,8.04724
Im Loh 44,49124,Georgsmarienhütte,52.22701,8.01312
Bornhardtstr. 15,38644,Goslar,51.9245,10.42442
Okerstr. 21,38640,Goslar,51.914,10.44674
Industriestr. 4a,37079,Göttingen,51.54004,9.89472
Annastr. 36,37075,Göttingen,51.54717,9.93351
Ohsener Str. 11,31789,Hameln,52.09865,9.36177
Deisterstr. 85,31785,Hameln,52.10376,9.37496
Reimerdeskamp 9,31787,Hameln,52.119,9.35572
Nienstedter Weg,31789,Hameln,52.08403,9.35551
Gartenstr. 30,30453,Hannover,52.37736,9.66125
Eichenweg 1,30659,Hannover,52.42935,9.80197
Hildesheimer Str. 213-219,30519,Hannover,52.34354,9.76419
Hannelore-Kunze-Straße 5,30539,Hannover,52.33856,9.81388
Berckhusenstraße 95,30625,Hannover,52.37718,9.7991
Bardowicker Str. 12,30449,Hannover,52.36867,9.70333
Anderter Str. 81,30629,Hannover,52.37997,9.86301
Brucknerring 1,30629,Hannover,52.39434,9.84462
Tresckowstr. 43,30457,Hannover,52.33752,9.69303
Tillystr. 31,30459,Hannover,52.3374,9.71862
Alte Stöckener Str. 95-97,30419,Hannover,52.41453,9.65197
Spielhagenstr. 20,30173,Hannover,52.36346,9.76338
Dresdener Str. 3,30179,Hannover,52.41082,9.75208
Hüttenstr. 23,30165,Hannover,52.39473,9.72246
Frankenstraße 2c,31135,Hildesheim,52.15584,9.96925
Drispenstedter Str. 2,31137,Hildesheim,52.1631,9.9639
Steuerwalder Str. 31,31137,Hildesheim,52.16195,9.94644
Von-Ketteler-Str. 24,31137,Hildesheim,52.16709,9.91438
Rex-Brauns-Str. 6,31139,Hildesheim,52.12674,9.94273
Heisfelderstr. 219,26789,Leer,53.24526,7.45733
Papenburger Str 13,26789,Leer,53.2313,7.47714
Ubbo-Emmius-Straße 95,26789,Leer,53.2303,7.43968
Am Laxtener Esch 1,49811,Lingen,52.51661,7.3456
Lindenstr. 3-11,49808,Lingen,52.51718,7.31614
Meppener Str. 129,49808,Lingen,52.53359,7.30353
Oldendorfer Str. 44,49324,Melle,52.20901,8.33202
Industriestr. 3,49324,Melle,52.19282,8.35291
Versener Str. 48,49716,Meppen,52.6962,7.26682
Fürstenbergstr. 54,49716,Meppen,52.6794,7.30241
Delmser Dorfstr. 7,29643,Neuenkirchen,53.0394,9.70833
Zum Thie 6,48485,Neuenkirchen,52.24597,7.37348
Hakenstr. 2,49434,Neuenkirchen,52.50849,8.06846
Gewerbestr. 14,26506,Norden,53.6031,7.18403
Borkener Hof 6,48527,Nordhorn,52.41429,7.04399
Am Eichenhain 2,48531,Nordhorn,52.44232,7.08204
Heideweg 53,48529,Nordhorn,52.41936,7.0817
Alexanderstr. 444,26127,Oldenburg,53.17707,8.18915
Melkbrink 68-72,26121,Oldenburg,53.15613,8.2013
Wehdestr. 10,26123,Oldenburg,53.15044,8.23805
Hundsmühler Str. 147,26131,Oldenburg,53.12108,8.19201
Cloppenburger Str. 405,26133,Oldenburg,53.10771,8.20808
Wilhelmshavener Heerstr. 51,26125,Oldenburg,53.17336,8.22965
Bremer Heerstr. 75,26135,Oldenburg,53.12764,8.23564
Ammerländer Heerstr. 274,26129,Oldenburg,53.15681,8.17031
Mönkedieckstr. 11-13,49088,Osnabrück,52.29936,8.06082
Hannoversche Str. 19,49084,Osnabrück,52.26477,8.06488
Pagenstecher Str. 96,49090,Osnabrück,52.29199,8.0224
Iburger Str. 225,49082,Osnabrück,52.24745,8.06455
Hans-Wunderlich-Str. 2,49078,Osnabrück,52.2673,8.00232
Mindener Str. 108,49084,Osnabrück,52.27138,8.08729
Bolwinsweg 3-5,26871,Papenburg,53.07248,7.43948
Karl-Hillers-Str. 10,26871,Papenburg,53.07866,7.38922
Braunschweiger Str. 120,31226,Peine,52.30809,10.24906
Daimlerstr. 2,31228,Peine,52.33811,10.24114
An der Erzbahn 4,38259,Salzgitter,52.05085,10.37288
Kurt-Schumacher-Ring 102,38228,Salzgitter,52.14397,10.2957
Ludwig-Erhard-Str. 28,38226,Salzgitter,52.1678,10.3371
Schäferwiese 3,38239,Salzgitter,52.19592,10.4586
Harburger Str. 99,21680,Stade,53.58921,9.48683
Haddorfer Grenzweg 22,21682,Stade,53.59762,9.42294
Mitscherlichstr. 60-62,26382,Wilhelmshaven,53.52761,8.10847
Freiligrathstraße 195,26386,Wilhelmshaven,53.54564,8.11849
Posener Straße 113,26388,Wilhelmshaven,53.573,8.08199
Adersheimer Str. 62,38304,Wolfenbüttel,52.1574,10.50946
Neuer Weg 29,38302,Wolfenbüttel,52.17525,10.54054
Trierer Straße 665,52078,Aachen,50.75316,6.15627
Peliserkerstr. 69,52068,Aachen,50.77921,6.1123
Eynattener Str. 26,52064,Aachen,50.76321,6.08457
Reinhardstr. 1 d,52078,Aachen,50.76262,6.1371
Jülicher Str. 358,52070,Aachen,50.7902,6.11707
Henricistr. 68,52072,Aachen,50.7874,6.06756
Weststr. 50,52074,Aachen,50.77058,6.05878
Werkstr. 29,52076,Aachen,50.71216,6.1386
Eschweiler Str. 1b,52477,Alsdorf,50.85818,6.20403
Am Heggeströver 1b,52477,Alsdorf,50.88084,6.16996
Ruhrstr. 68,59821,Arnsberg,51.40204,8.06384
Heinrich-Lübke-Str. 3,59759,Arnsberg,51.42886,7.99424
Tappeweg 13,59755,Arnsberg,51.44566,7.96473
Oeventroper Str. 5,59823,Arnsberg,51.39163,8.13331
Dingelkamp 2,32549,Bad,52.21674,8.80386
Sternstr. 9,59269,Beckum,51.75677,8.04529
Mark I Nr. 2,59269,Beckum,51.79872,8.0168
Peter-Achnitz-Str. 6,50129,Bergheim,50.98031,6.68093
Humboldt Str. 7-9,50126,Bergheim,50.94483,6.62685
Hauptstr. 393,51465,Bergisch,50.99321,7.14693
Mülheimer Str. 76,51469,Bergisch,50.98379,7.10233
Kölner Str. 73,51429,Bergisch,50.96163,7.14823
Lustheide 111,51427,Bergisch,50.94853,7.10482
Parkstr. 23,59192,Bergkamen,51.6209,7.6376
Jahnstr. 24,59192,Bergkamen,51.60764,7.58994
Westenhellweg 2,59192,Bergkamen,51.64787,7.64287
Detmolder Straße 345,33605,Bielefeld,52.00086,8.57482
Teutoburger Straße 98,33607,Bielefeld,52.01978,8.54319
Kimbernstraße 1,33647,Bielefeld,51.9893,8.50716
Detmolder Str. 550,33699,Bielefeld,51.99359,8.60459
Stadtheider Str. 11,33609,Bielefeld,52.03715,8.55237
Industriestr. 8,33689,Bielefeld,51.95327,8.575
Kasseler Straße 1,33649,Bielefeld,51.97059,8.46572
Wiescherstraße 6,44805,Bochum,51.51604,7.25714
Dr.-C.-Otto-Str. 141,44879,Bochum,51.42716,7.14126
Amtmann-Ibing-Str. 7,44805,Bochum,51.51843,7.28302
Vierhausstr. 110,44807,Bochum,51.49902,7.22386
Günnigfelder Str. 39b,44866,Bochum,51.4935,7.14347
Freudenbergstr. 6,44809,Bochum,51.49675,7.19001
Sudbeckenpfad 1,44803,Bochum,51.47543,7.27231
Ümminger Str. 10-14,44892,Bochum,51.47684,7.3011
Welper Str. 2-4,44879,Bochum,51.42838,7.17121
Kohlenstr. 190,44793,Bochum,51.47553,7.19275
Heidestr. 99,44866,Bochum,51.48012,7.16587
Lyrenstr. 9,44866,Bochum,51.48251,7.12972
Reinold-Hagen-Str. 15,53229,Bonn,50.74919,7.16086
Maarstraße 48,53227,Bonn,50.73718,7.13517
Elsässer Straße 20,53175,Bonn,50.6902,7.14563
Justus-von-Liebig-Str. 8,53121,Bonn,50.73944,7.05996
Basketsring 7,53123,Bonn,50.70663,7.05777
Endenicher Str. 116,53115,Bonn,50.73161,7.081
Kölnstr. 333-337,53117,Bonn,50.74772,7.08196
Hausdorffstr. 190,53129,Bonn,50.71064,7.10904
Drachenburgstr. 5,53179,Bonn,50.66696,7.17868
Havelstr. 4,53332,Bornheim,50.76825,7.04599
Auf dem Knickert 2,53332,Bornheim,50.76911,6.94416
Steingasse 4,50321,Brühl,50.80656,6.89934
Schwetzinger Straße 23,68782,Brühl,49.39514,8.53728
Köln Str. 108-110,50321,Brühl,50.8353,6.90822
Herforder Str. 13,32257,Bünde,52.19378,8.58785
Lübbecker Str. 74,32257,Bünde,52.20654,8.59348
Westring 206,44579,Castrop-Rauxel,51.55171,7.29417
Wittener Str. 92 (B235),44575,Castrop-Rauxel,51.54315,7.31653
Siemensstr. 13,44579,Castrop-Rauxel,51.5796,7.30712
Wartburgstr. 217-219,44579,Castrop-Rauxel,51.59294,7.30293
Dortmunder Str. 185,44577,Castrop-Rauxel,51.54237,7.33401
Anne-Frank-Str. 7,32756,Detmold,51.94737,8.89797
Adolf-Meier-Str. 38,32758,Detmold,51.94507,8.83418
Hedwigstr. 18,46537,Dinslaken,51.57248,6.72946
Walhovener Straße 30,41539,Dormagen,51.09805,6.84562
Am weißen Stein,41541,Dormagen,51.13675,6.80666
Brackeler Hellweg 154-156,44309,Dortmund,51.5241,7.54999
Hagener Str. 16,44225,Dortmund,51.47801,7.45895
Arminiusstr. 51,44149,Dortmund,51.51627,7.42473
Vogelpothsweg 6,44149,Dortmund,51.50254,7.41906
Husener Straße 44,44319,Dortmund,51.5587,7.59448
Markscheiderstraße 1,44269,Dortmund,51.497,7.5387
Kaiserstr. 182-190,44143,Dortmund,51.51435,7.49407
Märkische Straße 237-239,44141,Dortmund,51.49694,7.48949
Deutsche Str. 22,44339,Dortmund,51.54955,7.46538
Kieferstr. 19-21,44225,Dortmund,51.47282,7.43289
Huckarder Allee 27,44369,Dortmund,51.53767,7.41423
Droote 2,44328,Dortmund,51.55703,7.53883
Sölder Str. 143,44289,Dortmund,51.49294,7.5871
Eichwaldstr. 5,44319,Dortmund,51.53291,7.60874
Holtener Str. 203,47179,Duisburg,51.52913,6.75459
Friedrich-Ebert-Str. 207,47139,Duisburg,51.47155,6.7337
Flutweg 120,47228,Duisburg,51.41133,6.69335
Koloniestraße 78,47057,Duisburg,51.42285,6.78108
Duisburger Straße 247,47166,Duisburg,51.49529,6.77006
Großenbaumer Allee 61,47269,Duisburg,51.36924,6.77906
Lauerstr. 70,47198,Duisburg,51.45298,6.69974
Mündelheimer Str. 184,47259,Duisburg,51.36908,6.73226
Max-Peters-Str. 8,47059,Duisburg,51.44105,6.76243
Schulte-Marxloh-Str. 1,47169,Duisburg,51.504,6.76512
Bahnhofstr. 60,47138,Duisburg,51.46944,6.78419
Alexstr. 89,47167,Duisburg,51.49711,6.80114
Friedrich-Alfred-Str. 217 - 219,47226,Duisburg,51.40275,6.72462
Rathausallee 37,47239,Duisburg,51.39742,6.665
Düsseldorfer Str. 438,47055,Duisburg,51.40653,6.76484
Gewerbestr. 1,48249,Dülmen,51.86602,7.37308
Münsterstr. 150,48249,Dülmen,51.83997,7.28694
Hüttenweg 4,48249,Dülmen,51.82496,7.27083
Pfarrer-Holl-Weg 21,40489,Düsseldorf,51.32364,6.77016
Aachener Str. 152,40223,Düsseldorf,51.19844,6.77047
Hasselsstr. 1,40597,Düsseldorf,51.16948,6.87355
Dreherstraße 175,40625,Düsseldorf,51.2297,6.8475
Darmstädter Str. 2,40229,Düsseldorf,51.20225,6.83159
Grafenberger Allee 289c,40237,Düsseldorf,51.23432,6.81876
Konrad-Adenauer-Platz 1,40210,Düsseldorf,51.22163,6.79373
"Buscherstr. 3, 5, 5a",40239,Düsseldorf,51.24758,6.79724
Bruchstr. 94a,40235,Düsseldorf,51.2292,6.8209
Fichtenstr. 4,40233,Düsseldorf,51.21871,6.80728
Kölner Landstr.  435,40589,Düsseldorf,51.17677,6.83089
Oberbilker Allee 61,40223,Düsseldorf,51.21036,6.79089
Marler Str. 4,40472,Düsseldorf,51.26656,6.79963
Stephanstr. 5,40599,Düsseldorf,51.17869,6.85714
Alte Bottroper Str. 3,45356,Essen,51.48576,6.96701
Donnerstr. 201,45357,Essen,51.4879,6.92857
Ruhrau 42,45279,Essen,51.44111,7.08702
Eisenbahnstraße 10-18,45134,Essen,51.42736,7.04473
Altenessener Straße 289,45326,Essen,51.48894,7.00893
Gladbecker Straße 413,45326,Essen,51.48687,6.99734
Wolfsbankring 20,45355,Essen,51.47295,6.95797
Heidhauser Str. 135-137,45239,Essen,51.38234,7.02291
Hausackerstr. 27,45147,Essen,51.44138,6.97765
Karnaper Str. 139,45329,Essen,51.52569,7.00807
Katernberger Str. 76-78,45327,Essen,51.49982,7.04862
Montebruchstr. 2,45219,Essen,51.35778,6.93281
Rotthauser Str. 50,45309,Essen,51.47423,7.08152
Am Zehnthof 199,45307,Essen,51.45912,7.07372
Eleonorastr. 2,45136,Essen,51.43696,7.02409
Steeler Str. 487-489,45276,Essen,51.44622,7.06179
Essener Str. 71,45141,Essen,51.47271,7.03307
Haedenkampstr. 81,45143,Essen,51.45414,6.98744
Langenberger Str. 427,45277,Essen,51.42277,7.07341
Gerhard-Hauptmann-Str. 38-40,47608,Geldern,51.52226,6.30198
Grimbergstr. 2,45889,Gelsenkirchen,51.53924,7.11118
Lindenstr. 108a,45894,Gelsenkirchen,51.58663,7.0563
Vinckestr. 19,45894,Gelsenkirchen,51.57426,7.04666
Wanner Str. 155,45888,Gelsenkirchen,51.51503,7.12118
Festweg 1a,45886,Gelsenkirchen,51.49679,7.12334
Uferstr. 3,45881,Gelsenkirchen,51.53583,7.0711
Hans-Böckler-Allee 100,45883,Gelsenkirchen,51.51784,7.06881
Kärntener Ring 70,45899,Gelsenkirchen,51.54361,7.02877
Bokermühlstr. 9,45879,Gelsenkirchen,51.50322,7.09941
Engelbertstr. 47,45892,Gelsenkirchen,51.57578,7.11755
Scheideweg 65-69,45896,Gelsenkirchen,51.59343,6.99652
Roßheidestraße 6,45968,Gladbeck,51.55167,7.00281
Hornstr. 5,45964,Gladbeck,51.5586,6.94614
Klever Str. 30,47574,Goch,51.6866,6.15912
Saerbecker Str. 10-12,48268,Greven,52.09762,7.61219
Kanalstr. 2,48268,Greven,52.12028,7.55612
Am Hammerwerk 31,41515,Grevenbroich,51.08942,6.5762
Kolpingstraße 89,41515,Grevenbroich,51.08094,6.61167
Gronauer Str. 120,48599,Gronau,52.187,7.03171
Bethelner Landstr. 15,31028,Gronau,52.08734,9.78592
Vereinsstraße 177-185,48599,Gronau,52.21204,7.04574
Königstraße 62 - 64,48599,Gronau,52.21798,7.00833
Industriestr. 2,51643,Gummersbach,51.02134,7.57316
Vollmerhauser Str. 70,51645,Gummersbach,50.98917,7.5526
Neuenkirchener Straße 100,33332,Gütersloh,51.89366,8.38095
Auf dem Stempel 10,33334,Gütersloh,51.90502,8.34583
Alexanderstr. 16,58097,Hagen,51.37744,7.46166
Schwerter Str. 173-175,58099,Hagen,51.39975,7.47512
Schwerter Str. 22,58099,Hagen,51.38626,7.4563
Eilper Str. 42-44,58091,Hagen,51.34676,7.49575
Gotenweg  9,58119,Hagen,51.36354,7.55677
Natruper Str. 62-64,49170,Hagen,52.20033,7.93952
Elberfelder Str. 93-103,58095,Hagen,51.35864,7.46159
Preußerstr. 6,58135,Hagen,51.35051,7.43403
Friedrich-Ebert-Str. 14,59075,Hamm,51.69524,7.75882
Münsterstr. 77,59065,Hamm,51.69415,7.80713
Kamener Str. 176,59077,Hamm,51.63974,7.74678
Ostwennemarstr. 100,59071,Hamm,51.68843,7.88564
Kreisstr. 43a,45525,Hattingen,51.3988,7.17214
Zum Ludwigstal 60,45527,Hattingen,51.39478,7.21651
Unterbrucher Str. 1,52525,Heinsberg,51.06647,6.09939
Karl-Arnold-Str. 53,52525,Heinsberg,51.05707,6.1288
Emil-Langen-Str. 2,53773,Hennef,50.77319,7.30165
Westerwaldstr. 207,53773,Hennef,50.72824,7.37166
Ahmser Straße 50-54,32052,Herford,52.10548,8.67854
Westring 70,32051,Herford,52.11757,8.65489
Roonstr. 14,44629,Herne,51.54948,7.21956
Holsterhauser Straße 59,44652,Herne,51.52403,7.18694
Sodinger Str. 14,44623,Herne,51.53645,7.23106
Paul-Gerhardt-Str. 2,44628,Herne,51.57055,7.24127
Karolinen Str. 8,44649,Herne,51.53351,7.16782
Hammerschmidt Str. 76,44649,Herne,51.53942,7.1498
Kaiserstr. 223,45701,Herten,51.60257,7.15671
Ewaldstr. 244,45699,Herten,51.5772,7.14442
Paschenbergstr. 1,45699,Herten,51.59474,7.1305
Feldstr. 212,45701,Herten,51.61071,7.1209
Alte Bahn 9,52134,Herzogenrath,50.8328,6.08437
Rue de Plèrin 1,52134,Herzogenrath,50.87105,6.10314
Am Zollhaus 1,52134,Herzogenrath,50.84695,6.07446
Düsseldorfer Str. 59,40721,Hilden,51.16472,6.91945
Kölnstr. 110,50354,Hürth,50.87496,6.89029
Luxemburger Straße 80,50354,Hürth,50.8936,6.90362
Osnabrücker Straße 97,49477,Ibbenbüren,52.28892,7.72712
Gravenhorster Str. 126,49477,Ibbenbüren,52.27383,7.68092
Westfalenstr. 81,58636,Iserlohn,51.37413,7.72973
Schapker Weg/ Baarstr.,58638,Iserlohn,51.39279,7.69196
Hagener Str. 177,58642,Iserlohn,51.36356,7.59407
Heerstr. 507,50169,Kerpen,50.84503,6.7837
Hauptstr. 5,50169,Kerpen,50.92272,6.7071
Marienstr. 2,50171,Kerpen,50.872,6.69485
Kerpener Straße 148,50170,Kerpen,50.89896,6.68082
Heerstr. 1-9,50169,Kerpen,50.86763,6.74093
Nauenweg 78-80,47804,Krefeld,51.32294,6.54899
Gahlingspfad 25,47803,Krefeld,51.34177,6.5637
Girmesgath 3,47803,Krefeld,51.34467,6.54786
Hafelsstraße 235,47809,Krefeld,51.32283,6.60467
Gladbacher Str. 326,47805,Krefeld,51.31367,6.55972
Dießemer Bruch 87,47805,Krefeld,51.32633,6.59137
An der Kesselschmiede 2,47829,Krefeld,51.35852,6.64168
Neumarkt 8-10,50667,Köln,50.93651,6.94843
Bonner Str. 243,50968,Köln,50.9095,6.96355
Longericher Str. 181-183,50739,Köln,50.97918,6.92257
Bergisch Gladbacher Str. 190,51067,Köln,50.96501,7.02351
Elbeallee 11,50765,Köln,51.0255,6.88956
Marienheider Str. 1,51069,Köln,50.99938,7.03708
Leyendeckerstr. 2a,50825,Köln,50.95081,6.90755
Friedrich-Naumann-Str. 1,51145,Köln,50.89979,7.0754
Emil-Hoffmann-Str. 42,50996,Köln,50.86821,6.99088
An der Pulvermühle 2,51105,Köln,50.93509,6.99433
Kasernenstr. 2,51103,Köln,50.94,7.01397
Düsseldorfer Straße 177,51063,Köln,50.97757,7.00206
Karlsruher Straße 21,51065,Köln,50.95052,7.00118
Amsterdamer Straße 236B,50735,Köln,50.97924,6.96882
Weyerstr. 108-112,50676,Köln,50.92992,6.94236
Widdersdorfer Straße 254,50933,Köln,50.94687,6.8909
Dieselstr. 1-3,50859,Köln,50.94655,6.8409
Horbeller Str. 2-4,50858,Köln,50.91928,6.85947
Olpener Str. 401,51109,Köln,50.9424,7.04689
Berliner Str. 156,51063,Köln,50.97445,7.01346
Wiener Platz 1,51065,Köln,50.962,7.00473
Deutz-Mülheimer-Str. 140-144,51063,Köln,50.94898,6.9871
Bonner Wall 114-116,50677,Köln,50.91829,6.95114
Habsburgerring 2,50674,Köln,50.93506,6.93942
Sebastianstr. 28-32,50735,Köln,50.98337,6.96099
Hornstr. 88,50823,Köln,50.95656,6.93886
Rochusstr. 227-235,50827,Köln,50.96547,6.90544
Rösrather Str. 87,51107,Köln,50.92983,7.04896
Waffenschmidtstr. 9,50767,Köln,51.00375,6.87348
Kaiserstr. 99,51145,Köln,50.88167,7.0691
Kölner Str. 8,51149,Köln,50.89363,7.04723
Heidestr. 38,51147,Köln,50.85761,7.0905
Raderberger Str. 211,50968,Köln,50.90434,6.95709
Ringstr. 48,50996,Köln,50.88761,6.99551
Rhöndorfer Str. 12,50939,Köln,50.91574,6.93482
Zülpicher Str. 297,50937,Köln,50.9221,6.9215
Neusser Str.774-776,50737,Köln,50.98941,6.94393
Hardenbergstr. 80,51373,Leverkusen,51.04377,6.99237
Elbestraße 4,51371,Leverkusen,51.06439,6.95622
Stixchesstr. 133,51377,Leverkusen,51.02578,7.0148
Bonner Str. 7,51379,Leverkusen,51.06868,6.99747
Carl-von-Ossietzky-Str. 1,51377,Leverkusen,51.04929,7.06224
Wiedenbrücker Straße 78,59555,Lippstadt,51.68703,8.34307
Alstedder Str. 169-171,44534,Lünen,51.62856,7.48984
Mengeder Str. 53-55,44536,Lünen,51.59569,7.4316
Niederadener Str. 29,44532,Lünen,51.59417,7.55785
Bergstraße 3,44532,Lünen,51.60546,7.51483
Dümmer Weg 201,45772,Marl,51.66738,7.09257
Victoriastr. 99,45772,Marl,51.66686,7.13994
Bergstr. 223-225,45770,Marl,51.65657,7.10094
Am Bücking 2,58540,Meinerzhagen,51.11232,7.63844
Ihnestr. 5,58540,Meinerzhagen,51.11965,7.75699
Holzener Dorfstr. 8,58708,Menden,51.45075,7.75778
Im schwarzen Bruch 46,59872,Meschede,51.36058,8.29647
Schwabenring 6,32427,Minden,52.27453,8.88847
Stiftstraße 51-53,32427,Minden,52.29841,8.9114
Römerstr. 446,47441,Moers,51.44264,6.66185
Franz-Haniel-Str. 22,47443,Moers,51.45531,6.66502
Hülsdonker Str. 110,47441,Moers,51.45157,6.61033
Klever Str. 46,47441,Moers,51.45616,6.63762
Neusser Str. 57,41065,Mönchengladbach,51.20355,6.45939
Stockholtweg 100,41238,Mönchengladbach,51.16501,6.46097
Steinmetzstr. 71,41061,Mönchengladbach,51.19769,6.44235
Aachener Str. 699,41069,Mönchengladbach,51.17318,6.39802
Engelblecker Str. 73,41066,Mönchengladbach,51.21435,6.46417
Stapper Weg 11,41199,Mönchengladbach,51.13833,6.44457
Gladbacher Str. 49,41179,Mönchengladbach,51.15141,6.36344
Breite Str. 120,41236,Mönchengladbach,51.17929,6.45187
Mittelstr. 48,41236,Mönchengladbach,51.16082,6.43856
Monschauer Str. 31,41068,Mönchengladbach,51.19323,6.40952
Heifeskamp 18,45475,Mülheim,51.45864,6.88308
Hingbergstr. 337,45472,Mülheim,51.43376,6.92038
Düsseldorfer Str. 205,45481,Mülheim,51.4107,6.86874
Essener Str. 44,45470,Mülheim,51.42785,6.89869
Arnheimweg 9,48149,Münster,51.96676,7.57856
Dorbaumstr. 108,48157,Münster,51.99627,7.711
Fresnostr. 16,48159,Münster,51.98529,7.61131
Dingbängerweg 47,48163,Münster,51.93012,7.58084
An der Hiltruper Baumschule  10-14,48165,Münster,51.90628,7.63393
Robert-Bosch-Str. 2-4,48153,Münster,51.93281,7.63071
Friedrich-Ebert-Str. 17,48153,Münster,51.9519,7.63229
Hammer Straße  149,48153,Münster,51.94287,7.62382
York-Ring 22,48159,Münster,51.97344,7.61208
Westhoffstr. 138,48159,Münster,51.99581,7.6012
Hiltruper Str. 24,48167,Münster,51.91383,7.72365
Niedieckstr. 58,41334,Nettetal,51.31146,6.27839
Poststraße 67,41334,Nettetal,51.32612,6.19932
Zum Kisseltal 2,53819,Neunkirchen,50.83653,7.33043
Weidenstr. 3,57290,Neunkirchen,50.78346,8.0196
Am Hummelbach 40,41469,Neuss,51.14779,6.70359
Hammer Landstr. 45,41460,Neuss,51.20119,6.70302
Ruhrstr. 42,41469,Neuss,51.16005,6.73937
Normannenstr. 32-34,41462,Neuss,51.21784,6.68
Porzer Straße 75,53859,Niederkassel,50.8305,7.03086
Bahnhofstr. 94,53859,Niederkassel,50.79163,7.05439
Weierstr. 87,46149,Oberhausen,51.51986,6.82936
Lindnerstr. 63,46149,Oberhausen,51.49308,6.84016
Duisburger Str. 263,46049,Oberhausen,51.47736,6.83896
Mülheimer Str. 306,46045,Oberhausen,51.46543,6.86438
Brammenring 1,46047,Oberhausen,51.48706,6.88261
Teutobuger Str. 313,46119,Oberhausen,51.52018,6.89354
Dorstener Str. 290-292,46145,Oberhausen,51.52335,6.86388
An der Feuerwache 1,45739,Oer-Erkenschwick,51.6415,7.24845
Ludwigstr. 66,45739,Oer-Erkenschwick,51.63949,7.27506
Steinhauser Auel 1,51491,Overath,50.96402,7.32263
Meßdornstr. 3,33106,Paderborn,51.7304,8.69186
Schwabenweg 81,33102,Paderborn,51.74722,8.75672
Warburger Str. 130,33100,Paderborn,51.70535,8.77772
Dessauer Str. 2,33106,Paderborn,51.69698,8.73819
Bahnhofstr. 84,33102,Paderborn,51.71187,8.73295
Neuhäuser Straße 127,33102,Paderborn,51.72883,8.73118
Hatzfelder Str. 73,33104,Paderborn,51.75286,8.72818
Breddestr. 1b,58840,Plettenberg,51.23049,7.87179
Grafweg 19,58840,Plettenberg,51.20815,7.87349
Sachsenstr. 101 b,45665,Recklinghausen,51.60875,7.27208
Bochumer Straße 222,45661,Recklinghausen,51.5654,7.20905
Herner Straße 245-251,45663,Recklinghausen,51.58396,7.21245
Castroper Str. 136,45665,Recklinghausen,51.60461,7.21395
Franz-Vogt-Str. 1,42897,Remscheid,51.18333,7.25527
Am Schützenplatz 18,42899,Remscheid,51.21177,7.23545
Schüttendelle 49,42857,Remscheid,51.1804,7.17116
Königstr. 201,42853,Remscheid,51.19124,7.16947
Dechant-Römer-Str. 19,48432,Rheine,52.22607,7.48845
Elter Straße 234,48432,Rheine,52.26743,7.46222
Otto-Bergmeyer-Str. 1,48431,Rheine,52.27543,7.43659
Bonifatiusstr. 234a,48432,Rheine,52.30318,7.44982
Wehrscheid 22,57392,Schmallenberg,51.1842,8.31777
Alte Post/Weststr. 2,57392,Schmallenberg,51.152,8.28149
Viktoriastraße 32,58332,Schwelm,51.28799,7.28361
Schützenstr. 34a,58239,Schwerte,51.44647,7.58164
"Rosenweg 25, 27",58239,Schwerte,51.44083,7.54989
Reichshofstr. 11-13,58239,Schwerte,51.42564,7.53761
Eiserfelder Str. 342,57080,Siegen,50.8423,7.98776
Wenschtstr. 1,57078,Siegen,50.91292,8.00779
Hagener Str. 42,57072,Siegen,50.88388,8.02939
Frankfurter Str. 25,57074,Siegen,50.87113,8.0251
Grünewalder Str. 85,42657,Solingen,51.1595,7.07495
Hildener Str. 36,42697,Solingen,51.16753,6.99089
Scheidter Straße 1,42653,Solingen,51.18271,7.07894
Nümmener Feld 1,42719,Solingen,51.19205,7.06935
Beethovenstraße 129,42655,Solingen,51.17616,7.06053
Zietenstr. 1,42651,Solingen,51.16402,7.09656
Weyerstr. 269-277,42719,Solingen,51.17775,7.03026
Altenberger Str. 5,48565,Steinfurt,52.11794,7.39632
Baumgarten 1,48565,Steinfurt,52.14465,7.33735
Ardennenstr. 5,52223,Stolberg,50.76638,6.21844
Prattelsackstr. 30a,52222,Stolberg,50.78292,6.22087
Im Zehntfeld 68,53844,Troisdorf,50.81046,7.12731
Hauptstr. 77+79,53842,Troisdorf,50.82566,7.12365
Frankfurter Str. 93,53840,Troisdorf,50.81426,7.17605
Kamener Str. 37-39,59425,Unna,51.55776,7.68279
Bertha-von Suttner-Allee 2,59423,Unna,51.52622,7.69622
Hansastr. 74,59425,Unna,51.54059,7.6748
Bonsfelder Str. 1,42555,Velbert,51.36077,7.12478
Elberfelder Str. 103,42553,Velbert,51.30718,7.08719
Heiligenstr. 1,41751,Viersen,51.2597,6.33641
Tönisvorster Str. 65,41749,Viersen,51.28685,6.37934
Poststr. 6a,46562,Voerde,51.6278,6.64431
Bahnhofstr. 143,46562,Voerde,51.60103,6.69806
Möhnestr. 142,59581,Warstein,51.48879,8.26933
Alte Kreisstraße 11,59581,Warstein,51.45302,8.35992
Reeser Landstr. 66,46483,Wesel,51.6734,6.60852
Rudolf-Diesel-Str. 18,46485,Wesel,51.66324,6.66739
Rauer Werth 4,42275,Wuppertal,51.27406,7.20805
Märkische Str. 43,42281,Wuppertal,51.28493,7.20784
Wittensteinstr. 261,42283,Wuppertal,51.26628,7.18895
Hatzfelder Str. 10,42281,Wuppertal,51.27987,7.18284
Hofkamp 113-119,42103,Wuppertal,51.2579,7.15636
Viehhofstr. 35-37,42117,Wuppertal,51.24746,7.13792
Hahnerberger Str. 99-101,42349,Wuppertal,51.22432,7.15199
Lüttringhauser Str. 54,42369,Wuppertal,51.22579,7.20364
Höfen 52,42277,Wuppertal,51.27545,7.22987
Am Diek 105,42277,Wuppertal,51.28628,7.22895
Otto-Hausmann-Ring 116,42115,Wuppertal,51.25718,7.10778
Bissingstraße 5,42329,Wuppertal,51.23378,7.07609
Mennonitenstr. 21,67657,Kaiserslautern,49.44684,7.79472
Augustastr. 60,67655,Kaiserslautern,49.43962,7.77836
Kurt-Schumacher-Str. 1,67663,Kaiserslautern,49.42336,7.74852
Im Teichert 115,56076,Koblenz,50.35806,7.61082
Ernst-Abbe-Str. 1,56070,Koblenz,50.38937,7.55584
Wallersheimer Weg 46-48,56070,Koblenz,50.37156,7.59792
Schlachthofstr. 33,56073,Koblenz,50.36396,7.58197
Industriestr. 10,67063,Ludwigshafen,49.48709,8.41551
Hoheloogstr. 12,67065,Ludwigshafen,49.45792,8.43268
Flomersheimer Str. 15,67071,Ludwigshafen,49.49067,8.35236
Edigheimer Str. 137-139,67069,Ludwigshafen,49.52538,8.39801
Große Bleiche 41-45,55116,Mainz,50.00301,8.2673
Am Schleifweg 2,55128,Mainz,49.96779,8.23729
Hochheimer Straße 103,55246,Mainz,50.00803,8.30318
Alte Markthalle 2,55120,Mainz,50.02309,8.22139
Hattenbergstr. 7,55122,Mainz,50.01278,8.24721
Heiligkreuzweg 120a,55130,Mainz,49.97619,8.28413
Sayner Str. 60,56566,Neuwied,50.44272,7.55458
Stettiner Str. 3a,56564,Neuwied,50.43526,7.48557
Haßlocher Str. 55,67435,Neustadt,49.33149,8.20264
Zweibrücker Str. 116,66953,Pirmasens,49.21362,7.59819
Matthiasstr. 7-9,54290,Trier,49.74155,6.63322
Verteilerring 1,54292,Trier,49.77192,6.66532
Robert-Schuman-Allee 31,54296,Trier,49.74965,6.67752
Dr.-Carl-Sonnenschein-Str. 1,67550,Worms,49.64976,8.34042
Klosterstr. 40,67547,Worms,49.61824,8.35737
Etzelweg 219,66482,Zweibrücken,49.23134,7.35403
Sickingerhöhstr. 4,66482,Zweibrücken,49.25403,7.39178
Sulzbachtalstr. 86-90,66125,Saarbrücken,49.27178,7.02137
Am Torhaus 45,66113,Saarbrücken,49.24986,6.97986
Im Rotfeld 1,66115,Saarbrücken,49.24032,6.96708
Mainzer Str. 276,66121,Saarbrücken,49.22595,7.03512
Halbergstr. 3,66121,Saarbrücken,49.23237,7.00666
Am Kirchenbach 44,66740,Saarlouis,49.32854,6.75812
Wallerfanger Str. 59-65,66740,Saarlouis,49.31919,6.73324
Oststr. 70,66386,St.,49.27206,7.12976
Dudweiler Str. 103a,66386,St.,49.27585,7.09327
Karolinenstr. 26,92237,Sulzbach,49.50987,11.74619
Quierschieder Weg 3b,66280,Sulzbach,49.30104,7.05655
Am Hammergraben 7,66333,Völklingen,49.23074,6.82865
Straße des 13. Januar 213,66333,Völklingen,49.24825,6.90233
Püttlinger-/Neptunstraße 104,66333,Völklingen,49.26097,6.8685
Wilhelm-Raabe-Str. 52,09120,Chemnitz,50.81723,12.91602
Ringstraße 56,09247,Chemnitz,50.86494,12.86814
Limbacher Str. 208,09116,Chemnitz,50.83286,12.87509
Paul-Bertz-Str. 14,09120,Chemnitz,50.80204,12.88614
Limbacher Str. 31,09116,Chemnitz,50.83878,12.90286
Eckstr. 4,09111,Chemnitz,50.84608,12.92452
Zschopauer Straße 184,09126,Chemnitz,50.81812,12.94553
Zwickauer Str. 160,09116,Chemnitz,50.82212,12.89021
Zwickauer Str. 391,09117,Chemnitz,50.8169,12.84583
Bautzner Landstr. 112-114,01324,Dresden,51.06181,13.84434
Cossebauder Str. 6,01157,Dresden,51.06095,13.68183
Löbtauer Str. 26,01159,Dresden,51.05241,13.71606
Omsewitzer Ring 45,01169,Dresden,51.04884,13.66295
Ludwig-Kossuth-Str. 49,01109,Dresden,51.11707,13.74237
Schlesischer Platz 1,01097,Dresden,51.0652,13.74261
Karl-Marx-Str. 20,01109,Dresden,51.11284,13.77419
Österreicher Str. 2,01279,Dresden,51.02977,13.83219
Hansastr. 50,01097,Dresden,51.07233,13.73946
Pirnaer Landstr. 183a,01257,Dresden,51.00766,13.83554
Leipziger Str. 76,01127,Dresden,51.07422,13.72374
Georg-Palitzsch-Str. 16,01239,Dresden,51.0029,13.79451
Wiener Platz 4,01069,Dresden,51.04074,13.73209
Bodenbacher Str. 62a,01277,Dresden,51.02982,13.79008
Strehlener Platz 1,01219,Dresden,51.0338,13.74984
Comeniusplatz 2,01307,Dresden,51.04209,13.76858
Schandauer Str. 22a,01309,Dresden,51.04324,13.78695
Budapester Str. 26a,01069,Dresden,51.04155,13.7206
Großenhainer Str. 156,01129,Dresden,51.09078,13.72271
Köngisbrücker Landstr. 303,01108,Dresden,51.1463,13.80025
Südhöhe 38,01217,Dresden,51.01922,13.73778
Theresienstr. 5,04129,Leipzig,51.35995,12.38229
Lützner Str. 396,04205,Leipzig,51.32406,12.29016
Stuttgarter Allee 2,04207,Leipzig,51.31354,12.29409
Dieskaustr. 175,04249,Leipzig,51.30426,12.32759
Hauschildstr. 1,04177,Leipzig,51.33855,12.32298
Windscheidstr. 1,04277,Leipzig,51.31346,12.36874
Brühl 1,04109,Leipzig,51.34356,12.37588
Holzhäuser Str. 104,04299,Leipzig,51.31983,12.42357
Margaretha-Rothe-Str. 32,04289,Leipzig,51.29074,12.42834
Zwickauer Str. 66,04277,Leipzig,51.31084,12.3958
Riesaer Str. 75,04328,Leipzig,51.34592,12.46081
Zschochersche Str. 79,04229,Leipzig,51.32557,12.33467
Torgauer Str. 74,04318,Leipzig,51.3481,12.41942
Theklaer Str. 150,04349,Leipzig,51.37849,12.43015
Poststr. 11,01662,Meißen,51.16168,13.47555
Fabrikstr. 11,01662,Meißen,51.16574,13.48901
Rudolf-Renner-Str. 10,01796,Pirna,50.96805,13.93277
Dresdner Straße 9,01796,Pirna,50.95754,13.92734
Lange Str. 46,01587,Riesa,51.30413,13.26848
August-Bebel-Str. 2,01587,Riesa,51.29808,13.30818
Marienthaler Str. 53,08060,Zwickau,50.71942,12.46715
Am Fuchsgr. 21,08056,Zwickau,50.70174,12.48501
Askanische Str. 115,06846,Dessau,51.8288,12.2341
Rogätzer Str. 25,39106,Magdeburg,52.14714,11.65399
Halberstädter Str. 179,39112,Magdeburg,52.10725,11.59512
Alt-Salbke-Str. 49,39122,Magdeburg,52.07234,11.67042
Salbker Str. 2,39120,Magdeburg,52.09829,11.62134
Ernst-Reuter-Allee 11,39104,Magdeburg,52.12985,11.63963
Berliner Chaussee 48,39114,Magdeburg,52.12952,11.6711
Thietmarstr. 17,39128,Magdeburg,52.15722,11.62635
Am Rennebogen 177,39130,Magdeburg,52.14205,11.5808
Große Diesdorfer Str. 210,39108,Magdeburg,52.1299,11.60713
Erich-Weinert-Str. 23,39576,Stendal,52.59718,11.83974
An der Ost-West Brücke 1,25335,Elmshorn,53.76045,9.65959
Neustadt 23,24939,Flensburg,54.79738,9.42683
Merkurstr. 24,24943,Flensburg,54.79604,9.4785
Friesische Straße 171-191,24937,Flensburg,54.77816,9.41598
Preetzer Str. 306,24147,Kiel,54.2979,10.16974
Falckensteiner Str. 40,24159,Kiel,54.39399,10.17663
Werftstr. 197,24143,Kiel,54.31316,10.14013
Stormarnstr. 33,24113,Kiel,54.30519,10.12721
Kirchhofallee 68,24114,Kiel,54.3158,10.1196
Wischhofstr. 80,24148,Kiel,54.3241,10.1825
Ziegelstr. 113-119,23556,Lübeck,53.86358,10.65362
Osterweide 12,23562,Lübeck,53.8411,10.7106
Bei der Lohmühle 84,23554,Lübeck,53.87931,10.6709
Krempelsdorfer Allee 32-36,23556,Lübeck,53.88096,10.65845
Schwartauer Landstraße 6,23554,Lübeck,53.88881,10.6857
Solmitzstr. 26,23569,Lübeck,53.91502,10.80781
Gneversdorfer Weg 28,23570,Lübeck,53.96126,10.86066
Kantstr. 11,23566,Lübeck,53.86515,10.72092
Moislinger Allee 54,23558,Lübeck,53.85846,10.67083
Wasbeker Str. 335,24537,Neumünster,54.06886,9.94104
Stover Weg 2,24536,Neumünster,54.09845,9.98826
Clemdastr. 5,99817,Eisenach,50.98041,10.32286
Am Stadtweg 6,99817,Eisenach,51.00014,10.31641
Grenzweg 10,99091,Erfurt,51.00334,11.00165
Scharnhorststr. 66,99099,Erfurt,50.9581,11.06258
Eislebener Str. 4,99086,Erfurt,50.9919,11.02884
Eugen-Richter-Str. 28,99085,Erfurt,50.99043,11.04062
Straße des Bergmanns 10,07545,Gera,50.89287,12.08467
Straße des Friedens 32/34,07548,Gera,50.86973,12.06946
Zeulsdorfer Straße 50a,07549,Gera,50.84464,12.06376
Langenberger Str. 21,07552,Gera,50.91867,12.05411
Schöne Allee 14,99867,Gotha,50.94596,10.71714
Erfurter Str. 49a,99425,Weimar,50.98056,11.31446
